{
  "norad_id": 69011,
  "name": "CAS500-2 RIDESHARE OBJECT AH",
  "history": [
    {
      "epoch": "2026-05-09T20:00:04.000032Z",
      "apogee_km": 519.1805524670117,
      "perigee_km": 481.01460443809447,
      "latitude_deg": -82.32200107581698,
      "longitude_deg": -50.18594973072284,
      "height_km": 526.6560955040757,
      "semi_major_axis_km": 6878.234578452552,
      "eccentricity": 0.0027744,
      "inclination_deg": 97.7193,
      "raan_deg": 28.1829,
      "arg_perigee_deg": 185.3597,
      "mean_anomaly_deg": 84.419,
      "mean_motion_rev_day": 15.21904101
    },
    {
      "epoch": "2026-05-10T06:00:02.000160Z",
      "apogee_km": 516.3718972337228,
      "perigee_km": 478.9830059577016,
      "latitude_deg": 33.29931055198192,
      "longitude_deg": 65.47313912808406,
      "height_km": 518.5848924314375,
      "semi_major_axis_km": 6875.814451595712,
      "eccentricity": 0.00271887,
      "inclination_deg": 97.7185,
      "raan_deg": 28.6169,
      "arg_perigee_deg": 185.308,
      "mean_anomaly_deg": 208.416,
      "mean_motion_rev_day": 15.22707684
    },
    {
      "epoch": "2026-05-11T11:52:15.960288Z",
      "apogee_km": 508.6859424949016,
      "perigee_km": 501.02654761180565,
      "latitude_deg": -6.304727680519725e-05,
      "longitude_deg": -17.368579799460427,
      "height_km": 511.0415554426873,
      "semi_major_axis_km": 6882.993245053353,
      "eccentricity": 0.0005564,
      "inclination_deg": 97.4083,
      "raan_deg": 29.9806,
      "arg_perigee_deg": 144.0307,
      "mean_anomaly_deg": 216.1303,
      "mean_motion_rev_day": 15.20326085
    }
  ]
}